{"fetched_at":"2026-04-05T12:57:33Z","count":17389,"tles":[{"name":"COSMOS 2552","line1":"1 49503U 21113A   26086.19103094 -.00000343  00000+0  00000+0 0  9997","line2":"2 49503  62.8560 214.9085 6463655 272.5596  20.3435  2.00601281 31753","category":"Other"}]}