{
  "norad_id": 49503,
  "name": "COSMOS 2552",
  "history": [
    {
      "epoch": "2026-03-27T04:35:05.073216Z",
      "apogee_km": 37344.42779991546,
      "perigee_km": 3013.342195680246,
      "latitude_deg": -4.505637149523065e-05,
      "longitude_deg": -38.51517152260774,
      "height_km": 8655.418970575487,
      "semi_major_axis_km": 26557.021997797856,
      "eccentricity": 0.6463655,
      "inclination_deg": 62.856,
      "raan_deg": 214.9085,
      "arg_perigee_deg": 272.5596,
      "mean_anomaly_deg": 20.3435,
      "mean_motion_rev_day": 2.00601281
    }
  ]
}